OBJECT_NAME,OBJECT_ID,EPOCH,MEAN_MOTION,ECCENTRICITY,INCLINATION,RA_OF_ASC_NODE,ARG_OF_PERICENTER,MEAN_ANOMALY,EPHEMERIS_TYPE,CLASSIFICATION_TYPE,NORAD_CAT_ID,ELEMENT_SET_NO,REV_AT_EPOCH,BSTAR,MEAN_MOTION_DOT,MEAN_MOTION_DDOT
TJS-26A,2026-144A,2026-06-23T07:54:55.514880,2.27958502,.73145613,19.5157,324.7456,179.7910,181.1077,0,U,69674,999,2,.31526459E-3,.963E-4,-.166614E-6
STARLINK-38005,2026-145A,2026-06-30T20:00:01.999008,15.84001211,.0001381,97.2854,27.9417,82.1850,312.2800,0,U,69677,999,212,-.1258E-1,-.2417227E-1,0
STARLINK-38009,2026-145B,2026-06-30T20:00:01.999008,15.84284777,.0001498,97.2855,27.9436,77.3177,321.1960,0,U,69678,999,212,-.12289E-1,-.2397217E-1,0
STARLINK-37998,2026-145C,2026-06-30T20:00:01.999008,15.84565747,.000148,97.2857,27.9448,75.3862,326.4846,0,U,69679,999,212,-.12255E-1,-.2419432E-1,0
STARLINK-37994,2026-145D,2026-06-30T20:00:01.999008,15.84383131,.0001458,97.2857,27.9455,77.6317,325.3465,0,U,69680,999,212,-.1236E-1,-.241881E-1,0
STARLINK-37992,2026-145E,2026-06-30T20:00:01.999008,15.84473219,.0001443,97.2857,27.9460,79.9549,324.5993,0,U,69681,999,212,-.12316E-1,-.2420427E-1,0
STARLINK-37997,2026-145F,2026-06-30T20:00:01.999008,15.84536035,.0001413,97.2858,27.9468,80.8891,325.1337,0,U,69682,999,212,-.12285E-1,-.2421454E-1,0
STARLINK-37990,2026-145G,2026-06-30T20:00:01.999008,15.85067876,.0001419,97.2859,27.9494,79.5146,333.1099,0,U,69683,999,212,-.1196E-1,-.2419006E-1,0
STARLINK-37951,2026-145H,2026-06-30T20:00:01.999008,15.85064402,.0001372,97.2858,27.9496,75.5701,337.7570,0,U,69684,999,212,-.11945E-1,-.2416068E-1,0
STARLINK-37957,2026-145J,2026-06-30T20:00:01.999008,15.85217704,.0001379,97.2859,27.9511,86.7185,329.0204,0,U,69685,999,212,-.11836E-1,-.2412428E-1,0
STARLINK-37968,2026-145K,2026-06-30T20:00:01.999008,15.87020490,.0001538,97.2866,27.9599,92.2157,343.5087,0,U,69686,999,212,-.10748E-1,-.2337783E-1,0
STARLINK-37977,2026-145L,2026-06-30T20:00:01.999008,15.87411056,.0001437,97.2867,27.9614,81.9828,358.3635,0,U,69687,999,212,-.10577E-1,-.2344237E-1,0
STARLINK-37908,2026-145M,2026-06-30T20:00:01.999008,15.87808662,.0001456,97.2867,27.9635,85.7216,359.3679,0,U,69688,999,212,-.10346E-1,-.2339929E-1,0
STARLINK-37979,2026-145N,2026-06-30T20:00:01.999008,15.87915129,.000144,97.2868,27.9644,89.3621,358.9443,0,U,69689,999,212,-.10274E-1,-.2336603E-1,0
STARLINK-37940,2026-145P,2026-06-30T20:00:01.999008,15.88459816,.000143,97.2867,27.9672,85.8532,8.4254,0,U,69690,999,212,-.10054E-1,-.2347732E-1,0
STARLINK-37961,2026-145Q,2026-06-30T20:00:01.999008,15.88981071,.0001484,97.2868,27.9695,88.0434,11.9929,0,U,69691,999,212,-.9744E-2,-.2338145E-1,0
STARLINK-37787,2026-145R,2026-06-30T20:00:01.999008,15.89391316,.0001453,97.2867,27.9722,86.4528,20.2893,0,U,69692,999,212,-.9493E-2,-.2704669E-1,.18941E-2
STARLINK-37962,2026-145S,2026-06-30T20:00:01.999008,15.89410388,.0001471,97.2868,27.9721,88.8069,17.1802,0,U,69693,999,212,-.95013E-2,-.2709596E-1,.19013E-2
STARLINK-37953,2026-145T,2026-06-30T20:00:01.999008,15.89365564,.000149,97.2868,27.9725,89.4536,18.1929,0,U,69694,999,212,-.95654E-2,-.2721737E-1,.19172E-2
STARLINK-37926,2026-145U,2026-06-30T20:00:01.999008,15.89514469,.0001514,97.2870,27.9741,88.8842,21.1045,0,U,69695,999,212,-.94886E-2,-.2720062E-1,.19181E-2
STARLINK-37959,2026-145V,2026-06-30T20:00:01.999008,15.89530413,.0001543,97.2869,27.9738,87.5103,23.3641,0,U,69696,999,212,-.94721E-2,-.2717519E-1,.19149E-2
STARLINK-37976,2026-145W,2026-06-30T20:00:01.999008,15.90272838,.0001514,97.2872,27.9781,88.1873,31.0529,0,U,69697,999,212,-.90489E-2,-.2694823E-1,.1899E-2
STARLINK-37912,2026-145X,2026-06-30T20:00:01.999008,15.90663594,.0001591,97.2872,27.9800,86.4425,37.3622,0,U,69698,999,212,-.89322E-2,-.2713102E-1,.19331E-2
STARLINK-37974,2026-145Y,2026-06-30T20:00:01.999008,15.90795928,.0001589,97.2872,27.9810,85.7461,40.3469,0,U,69699,999,212,-.88346E-2,-.2701535E-1,.19197E-2
STARLINK-37955,2026-145Z,2026-06-30T20:00:01.999008,15.91695982,.0001541,97.2875,27.9848,91.0522,44.0852,0,U,69700,999,212,-.84555E-2,-.2707003E-1,.19474E-2
STRIX-8,2026-146A,2026-06-30T19:29:02.847264,15.04318228,.0009209,41.9894,92.7649,294.1110,65.8754,0,U,69701,999,61,.36224E-3,.495E-4,0
