TJS-26A                 
1 69674U 26144A   26174.32980920  .00009630 -16661-6  31526-3 0  9997
2 69674  19.5157 324.7456 7314561 179.7910 181.1077  2.27958502    21
STARLINK-38005          
1 69677U 26145A   26181.83335647 -.02417227  00000+0 -12580-1 0  9993
2 69677  97.2854  27.9417 0001381  82.1850 312.2800 15.84001211  2123
STARLINK-38009          
1 69678U 26145B   26181.83335647 -.02397217  00000+0 -12289-1 0  9996
2 69678  97.2855  27.9436 0001498  77.3177 321.1960 15.84284777  2129
STARLINK-37998          
1 69679U 26145C   26181.83335647 -.02419432  00000+0 -12255-1 0  9994
2 69679  97.2857  27.9448 0001480  75.3862 326.4846 15.84565747  2125
STARLINK-37994          
1 69680U 26145D   26181.83335647 -.02418810  00000+0 -12360-1 0  9992
2 69680  97.2857  27.9455 0001458  77.6317 325.3465 15.84383131  2120
STARLINK-37992          
1 69681U 26145E   26181.83335647 -.02420427  00000+0 -12316-1 0  9991
2 69681  97.2857  27.9460 0001443  79.9549 324.5993 15.84473219  2127
STARLINK-37997          
1 69682U 26145F   26181.83335647 -.02421454  00000+0 -12285-1 0  9998
2 69682  97.2858  27.9468 0001413  80.8891 325.1337 15.84536035  2120
STARLINK-37990          
1 69683U 26145G   26181.83335647 -.02419006  00000+0 -11960-1 0  9998
2 69683  97.2859  27.9494 0001419  79.5146 333.1099 15.85067876  2122
STARLINK-37951          
1 69684U 26145H   26181.83335647 -.02416068  00000+0 -11945-1 0  9997
2 69684  97.2858  27.9496 0001372  75.5701 337.7570 15.85064402  2121
STARLINK-37957          
1 69685U 26145J   26181.83335647 -.02412428  00000+0 -11836-1 0  9993
2 69685  97.2859  27.9511 0001379  86.7185 329.0204 15.85217704  2121
STARLINK-37968          
1 69686U 26145K   26181.83335647 -.02337783  00000+0 -10748-1 0  9995
2 69686  97.2866  27.9599 0001538  92.2157 343.5087 15.87020490  2120
STARLINK-37977          
1 69687U 26145L   26181.83335647 -.02344237  00000+0 -10577-1 0  9998
2 69687  97.2867  27.9614 0001437  81.9828 358.3635 15.87411056  2123
STARLINK-37908          
1 69688U 26145M   26181.83335647 -.02339929  00000+0 -10346-1 0  9995
2 69688  97.2867  27.9635 0001456  85.7216 359.3679 15.87808662  2123
STARLINK-37979          
1 69689U 26145N   26181.83335647 -.02336603  00000+0 -10274-1 0  9992
2 69689  97.2868  27.9644 0001440  89.3621 358.9443 15.87915129  2129
STARLINK-37940          
1 69690U 26145P   26181.83335647 -.02347732  00000+0 -10054-1 0  9995
2 69690  97.2867  27.9672 0001430  85.8532   8.4254 15.88459816  2126
STARLINK-37961          
1 69691U 26145Q   26181.83335647 -.02338145  00000+0 -97440-2 0  9999
2 69691  97.2868  27.9695 0001484  88.0434  11.9929 15.88981071  2129
STARLINK-37787          
1 69692U 26145R   26181.83335647 -.02704669  18941-2 -94930-2 0  9995
2 69692  97.2867  27.9722 0001453  86.4528  20.2893 15.89391316  2123
STARLINK-37962          
1 69693U 26145S   26181.83335647 -.02709596  19013-2 -95013-2 0  9994
2 69693  97.2868  27.9721 0001471  88.8069  17.1802 15.89410388  2126
STARLINK-37953          
1 69694U 26145T   26181.83335647 -.02721737  19172-2 -95654-2 0  9993
2 69694  97.2868  27.9725 0001490  89.4536  18.1929 15.89365564  2124
STARLINK-37926          
1 69695U 26145U   26181.83335647 -.02720062  19181-2 -94886-2 0  9990
2 69695  97.2870  27.9741 0001514  88.8842  21.1045 15.89514469  2129
STARLINK-37959          
1 69696U 26145V   26181.83335647 -.02717519  19149-2 -94721-2 0  9996
2 69696  97.2869  27.9738 0001543  87.5103  23.3641 15.89530413  2125
STARLINK-37976          
1 69697U 26145W   26181.83335647 -.02694823  18990-2 -90489-2 0  9999
2 69697  97.2872  27.9781 0001514  88.1873  31.0529 15.90272838  2124
STARLINK-37912          
1 69698U 26145X   26181.83335647 -.02713102  19331-2 -89322-2 0  9996
2 69698  97.2872  27.9800 0001591  86.4425  37.3622 15.90663594  2122
STARLINK-37974          
1 69699U 26145Y   26181.83335647 -.02701535  19197-2 -88346-2 0  9999
2 69699  97.2872  27.9810 0001589  85.7461  40.3469 15.90795928  2123
STARLINK-37955          
1 69700U 26145Z   26181.83335647 -.02707003  19474-2 -84555-2 0  9994
2 69700  97.2875  27.9848 0001541  91.0522  44.0852 15.91695982  2123
STRIX-8                 
1 69701U 26146A   26181.81183851  .00004950  00000+0  36224-3 0  9992
2 69701  41.9894  92.7649 0009209 294.1110  65.8754 15.04318228   611
